STARLINK-1630_new
1 16132C 20057R   21326.15526738  .00002177  00000-0  14585-3 0  3268
2 16132  53.0523 158.0486 0001864  79.8535 234.9424 15.06404714    15
STARLINK-1630_old
1 26132C 20057R   21325.17397223  .00002365  00000-0  15845-3 0  3252
2 26132  53.0522 162.4540 0001878  77.9147 312.3202 15.06400908    13
